NORAD_CAT_ID,OBJECT_NAME,OBJECT_TYPE,EPOCH,MEAN_MOTION,ECCENTRICITY,INCLINATION,RA_OF_ASC_NODE,ARG_OF_PERICENTER,MEAN_ANOMALY,BSTAR,MEAN_MOTION_DOT,MEAN_MOTION_DDOT,TLE_LINE0,TLE_LINE1,TLE_LINE2,SEMIMAJOR_AXIS,PERIOD,APOGEE,PERIGEE,DECAYED
52989.0,STARLINK-4293,PAYLOAD,2022-11-15 19:20:55,15.08840382,0.0002557,53.218,135.5113,38.1478,321.9695,0.00016865,2.397e-05,0.0,0 STARLINK-4293,1 52989U 22076D   22319.80619669  .00002397  00000-0  16865-3 0  9992,2 52989  53.2180 135.5113 0002557  38.1478 321.9695 15.08840382 20054,6917.879,95.438,541.513,537.975,0.0
52989.0,STARLINK-4293,PAYLOAD,2022-11-16 00:07:04,15.08842464,0.0002569,53.218,134.6192,38.3122,321.8052,0.00018505,2.658e-05,0.0,0 STARLINK-4293,1 52989U 22076D   22320.00491556  .00002658  00000-0  18505-3 0  9992,2 52989  53.2180 134.6192 0002569  38.3122 321.8052 15.08842464 20084,6917.873000000001,95.437,541.515,537.961,0.0
52989.0,STARLINK-4293,PAYLOAD,2022-11-16 17:36:20,15.08832664,0.0002604,53.218,131.3481,40.1786,319.9398,1.6984000000000002e-05,-1.8e-07,0.0,0 STARLINK-4293,1 52989U 22076D   22320.73356801 -.00000018  00000-0  16984-4 0  9994,2 52989  53.2180 131.3481 0002604  40.1786 319.9398 15.08832664 20662,6917.903,95.438,541.569,537.966,0.0
52989.0,STARLINK-4293,PAYLOAD,2022-11-16 19:11:43,15.08833282,0.0002613,53.218,131.0507,40.1308,319.9877,1.7802e-05,-5e-08,0.0,0 STARLINK-4293,1 52989U 22076D   22320.79980764 -.00000005  00000-0  17802-4 0  9997,2 52989  53.2180 131.0507 0002613  40.1308 319.9877 15.08833282 20207,6917.901,95.438,541.5740000000002,537.9580000000002,0.0
52989.0,STARLINK-4293,PAYLOAD,2022-11-16 23:57:52,15.08834845,0.0002626,53.218,130.1585,40.2869,319.8317,2.4697e-05,1.05e-06,0.0,0 STARLINK-4293,1 52989U 22076D   22320.99852664  .00000105  00000-0  24697-4 0  9996,2 52989  53.2180 130.1585 0002626  40.2869 319.8317 15.08834845 20237,6917.896,95.438,541.578,537.945,0.0
52989.0,STARLINK-4293,PAYLOAD,2022-11-17 22:13:16,15.08842537,0.0002623,53.218,125.9955,40.9768,319.1421,3.4467e-05,2.6e-06,0.0,0 STARLINK-4293,1 52989U 22076D   22321.92588278  .00000260  00000-0  34467-4 0  9995,2 52989  53.2180 125.9955 0002623  40.9768 319.1421 15.08842537 20845,6917.873000000001,95.437,541.552,537.923,0.0
52989.0,STARLINK-4293,PAYLOAD,2022-11-18 04:34:48,15.08844754,0.000263,53.2181,124.8063,40.7385,319.3803,6.2324e-05,7.04e-06,0.0,0 STARLINK-4293,1 52989U 22076D   22322.19084038  .00000704  00000-0  62324-4 0  9996,2 52989  53.2181 124.8063 0002630  40.7385 319.3803 15.08844754 20417,6917.866,95.437,541.55,537.911,0.0
52989.0,STARLINK-4293,PAYLOAD,2022-11-18 17:17:53,15.08844956,0.0002618,53.2183,122.4271,40.8428,319.276,0.0001633,2.312e-05,0.0,0 STARLINK-4293,1 52989U 22076D   22322.72075920  .00002312  00000-0  16330-3 0  9997,2 52989  53.2183 122.4271 0002618  40.8428 319.2760 15.08844956 20492,6917.865,95.437,541.5409999999998,537.919,0.0
52989.0,STARLINK-4293,PAYLOAD,2022-11-19 10:47:07,15.08849492,0.0002686,53.2183,119.1561,43.1088,317.0114,0.00016023,2.263e-05,0.0,0 STARLINK-4293,1 52989U 22076D   22323.44939530  .00002263  00000-0  16023-3 0  9997,2 52989  53.2183 119.1561 0002686  43.1088 317.0114 15.08849492 21074,6917.851,95.437,541.575,537.8580000000002,0.0
52989.0,STARLINK-4293,PAYLOAD,2022-11-19 17:08:40,15.08846645,0.0002735,53.2181,117.9674,42.2902,317.8301,0.00010165,1.33e-05,0.0,0 STARLINK-4293,1 52989U 22076D   22323.71435765  .00001330  00000-0  10165-3 0  9993,2 52989  53.2181 117.9674 0002735  42.2902 317.8301 15.08846645 20648,6917.86,95.437,541.617,537.8330000000002,0.0
52989.0,STARLINK-4293,PAYLOAD,2022-11-19 20:19:26,15.08842828,0.0002683,53.2187,117.3722,42.2932,317.8267,5.6287e-05,6.08e-06,0.0,0 STARLINK-4293,1 52989U 22076D   22323.84683952  .00000608  00000-0  56287-4 0  9993,2 52989  53.2187 117.3722 0002683  42.2932 317.8267 15.08842828 21132,6917.871999999999,95.437,541.5930000000002,537.881,0.0
52989.0,STARLINK-4293,PAYLOAD,2022-11-20 16:59:28,15.08813188,0.0002659,53.2191,113.5065,46.8225,313.2989,0.0002939,4.389e-05,0.0,0 STARLINK-4293,1 52989U 22076D   22324.70796718  .00004389  00000-0  29390-3 0  9998,2 52989  53.2191 113.5065 0002659  46.8225 313.2989 15.08813188 21265,6917.962,95.439,541.6669999999998,537.988,0.0
52989.0,STARLINK-4293,PAYLOAD,2022-11-20 20:10:14,15.08834252,0.0002653,53.2195,112.9115,42.9319,317.188,-4.0578e-06,-3.53e-06,0.0,0 STARLINK-4293,1 52989U 22076D   22324.84044360 -.00000353  00000-0 -40578-5 0  9994,2 52989  53.2195 112.9115 0002653  42.9319 317.1880 15.08834252 20811,6917.898,95.438,541.5980000000002,537.928,0.0
52989.0,STARLINK-4293,PAYLOAD,2022-11-20 21:45:37,15.08827069,0.0002643,53.2193,112.614,43.9171,316.2031,8.8499e-05,1.12e-05,0.0,0 STARLINK-4293,1 52989U 22076D   22324.90668537  .00001120  00000-0  88499-4 0  9993,2 52989  53.2193 112.6140 0002643  43.9171 316.2031 15.08827069 21299,6917.92,95.438,541.613,537.957,0.0
52989.0,STARLINK-4293,PAYLOAD,2022-11-21 10:28:43,15.08835512,0.0003875,53.2194,110.2356,43.9065,316.2234,-5.4482e-05,-1.156e-05,0.0,0 STARLINK-4293,1 52989U 22076D   22325.43660964 -.00001156  00000-0 -54482-4 0  9994,2 52989  53.2194 110.2356 0003875  43.9065 316.2234 15.08835512 20907,6917.894,95.438,542.44,537.078,0.0
52989.0,STARLINK-4293,PAYLOAD,2022-11-21 16:50:16,15.08822009,0.0002779,53.2194,109.0477,41.6397,318.4806,-7.2557e-05,-1.443e-05,0.0,0 STARLINK-4293,1 52989U 22076D   22325.70157931 -.00001443  00000-0 -72557-4 0  9991,2 52989  53.2194 109.0477 0002779  41.6397 318.4806 15.08822009 21415,6917.935,95.439,541.7230000000002,537.878,0.0
52989.0,STARLINK-4293,PAYLOAD,2022-11-21 20:01:02,15.08823977,0.0002758,53.2195,108.4529,42.2786,317.8418,-5.4369e-05,-1.153e-05,0.0,0 STARLINK-4293,1 52989U 22076D   22325.83405886 -.00001153  00000-0 -54369-4 0  9999,2 52989  53.2195 108.4529 0002758  42.2786 317.8418 15.08823977 20969,6917.929,95.439,541.702,537.886,0.0
52989.0,STARLINK-4293,PAYLOAD,2022-11-22 16:41:02,15.08833104,0.000263,53.219,104.5881,43.8571,316.2629,0.00011422,1.53e-05,0.0,0 STARLINK-4293,1 52989U 22076D   22326.69517326  .00001530  00000-0  11422-3 0  9996,2 52989  53.2190 104.5881 0002630  43.8571 316.2629 15.08833104 21567,6917.901,95.438,541.586,537.947,0.0
52989.0,STARLINK-4293,PAYLOAD,2022-11-22 19:51:48,15.08841898,0.0002738,53.2196,103.9916,42.3021,317.8182,0.00017524,2.502e-05,0.0,0 STARLINK-4293,1 52989U 22076D   22326.82764604  .00002502  00000-0  17524-3 0  9993,2 52989  53.2196 103.9916 0002738  42.3021 317.8182 15.08841898 21119,6917.875,95.437,541.634,537.845,0.0
52989.0,STARLINK-4293,PAYLOAD,2022-11-23 08:34:53,15.08846493,0.0003218,53.2185,101.6113,42.75899999999999,317.3652,0.00016112,2.277e-05,0.0,0 STARLINK-4293,1 52989U 22076D   22327.35756541  .00002277  00000-0  16112-3 0  9994,2 52989  53.2185 101.6113 0003218  42.7590 317.3652 15.08846493 21191,6917.861,95.437,541.952,537.499,0.0
52989.0,STARLINK-4293,PAYLOAD,2022-11-23 18:07:13,15.08836876,0.0002638,53.2193,99.828,40.1413,319.9773,0.00016976,2.414e-05,0.0,0 STARLINK-4293,1 52989U 22076D   22327.75501163  .00002414  00000-0  16976-3 0  9997,2 52989  53.2193  99.8280 0002638  40.1413 319.9773 15.08836876 21729,6917.89,95.438,541.58,537.93,0.0
52989.0,STARLINK-4293,PAYLOAD,2022-11-24 08:25:42,15.08806755,0.0002613,53.2192,97.1514,45.7357,314.385,0.00069491,0.00010779,0.0,0 STARLINK-4293,1 52989U 22076D   22328.35118109  .00010779  00000-0  69491-3 0  9991,2 52989  53.2192  97.1514 0002613  45.7357 314.3850 15.08806755 21818,6917.982,95.44,541.655,538.039,0.0
52989.0,STARLINK-4293,PAYLOAD,2022-11-24 13:11:50,15.08851127,0.0002953,53.2198,96.2587,35.9803,324.1388,5.3091e-06,-2.04e-06,0.0,0 STARLINK-4293,1 52989U 22076D   22328.54988659 -.00000204  00000-0  53091-5 0  9991,2 52989  53.2198  96.2587 0002953  35.9803 324.1388 15.08851127 21849,6917.846,95.437,541.754,537.669,0.0
52989.0,STARLINK-4293,PAYLOAD,2022-11-25 11:27:13,15.08853748,0.0002416,53.2194,92.0967,36.2099,323.9056,6.9925e-05,8.25e-06,0.0,0 STARLINK-4293,1 52989U 22076D   22329.47723516  .00000825  00000-0  69925-4 0  9993,2 52989  53.2194  92.0967 0002416  36.2099 323.9056 15.08853748 21510,6917.8380000000025,95.437,541.375,538.0319999999998,0.0
52989.0,STARLINK-4293,PAYLOAD,2022-11-25 17:48:46,15.08844423,0.0002833,53.2193,90.9107,35.6201,324.498,4.4277e-05,4.16e-06,0.0,0 STARLINK-4293,1 52989U 22076D   22329.74220120  .00000416  00000-0  44277-4 0  9995,2 52989  53.2193  90.9107 0002833  35.6201 324.4980 15.08844423 22022,6917.8669999999975,95.437,541.692,537.7719999999998,0.0
52989.0,STARLINK-4293,PAYLOAD,2022-11-26 11:17:59,15.08849529,0.0002577,53.2194,87.6375,36.5005,323.6162,0.00010501,1.384e-05,0.0,0 STARLINK-4293,1 52989U 22076D   22330.47083067  .00001384  00000-0  10501-3 0  9991,2 52989  53.2194  87.6375 0002577  36.5005 323.6162 15.08849529 21664,6917.851,95.437,541.499,537.934,0.0
52989.0,STARLINK-4293,PAYLOAD,2022-11-26 17:39:32,15.08847931,0.0002785,53.219,86.4493,36.8438,323.2745,0.00011335,1.516e-05,0.0,0 STARLINK-4293,1 52989U 22076D   22330.73579071  .00001516  00000-0  11335-3 0  9998,2 52989  53.2190  86.4493 0002785  36.8438 323.2745 15.08847931 21705,6917.856,95.437,541.648,537.795,0.0
52989.0,STARLINK-4293,PAYLOAD,2022-11-27 11:08:47,15.08842903,0.0002576,53.2192,83.1782,36.3594,323.7572,-4.3622e-05,-9.83e-06,0.0,0 STARLINK-4293,1 52989U 22076D   22331.46443432 -.00000983  00000-0 -43622-4 0  9994,2 52989  53.2192  83.1782 0002576  36.3594 323.7572 15.08842903 21817,6917.871999999999,95.437,541.519,537.9540000000002,0.0
52989.0,STARLINK-4293,PAYLOAD,2022-11-27 17:30:20,15.0882856,0.0002804,53.2182,81.9904,34.3005,325.8167,-0.00012119,-2.216e-05,0.0,0 STARLINK-4293,1 52989U 22076D   22331.72940769 -.00002216  00000-0 -12119-3 0  9995,2 52989  53.2182  81.9904 0002804  34.3005 325.8167 15.08828560 22320,6917.915,95.438,541.72,537.841,0.0
